ICEYE-X40               
1 60549U 24149CK  26191.14745577  .00001337  00000+0  11806-3 0  9995
2 60549  97.6804 267.2722 0004527  14.3436 345.7914 14.98045385103517
ICEYE-X49               
1 62384U 24247H   26191.14048171  .00002603  00000+0  15666-3 0  9994
2 62384  44.9969 234.7968 0001280 237.1161 122.9594 15.13598488 85655
ICEYE-X47               
1 62389U 24247N   26191.24805528  .00001965  00000+0  12215-3 0  9994
2 62389  44.9950 233.8127 0001896 323.2378  36.8369 15.13473764 85671
ICEYE-X42               
1 62698U 25009CT  26190.94454288  .00001141  00000+0  11850-3 0  9993
2 62698  97.7369 268.8517 0001580  78.4032 281.7365 14.91841595 80680
ICEYE-X41               
1 62700U 25009CV  26191.20016094  .00001464  00000+0  13255-3 0  9995
2 62700  97.7063 270.3927 0000687 354.9153   5.2062 14.96897863 80857
ICEYE-X45               
1 62705U 25009DA  26190.19755006  .00004401  00000+0  35108-3 0  9995
2 62705  97.8389 277.0630 0001347  83.0695 277.0682 15.00834679 80987
ICEYE-X44               
1 62707U 25009DC  26189.75547583  .00002064  00000+0  18849-3 0  9992
2 62707  97.7046 268.5409 0002514  83.8125 276.3383 14.96140860103162
ICEYE-X48               
1 63253U 25052AV  26189.69816555  .00001783  00000+0  15556-3 0  9997
2 63253  97.6841  81.5559 0003270 119.7800 240.3748 14.98103104 71891
ICEYE-X50               
1 63255U 25052AX  26191.31112774  .00001449  00000+0  13648-3 0  9992
2 63255  97.6865  82.7600 0003306 112.2562 247.9010 14.95353974 72101
ICEYE-X51               
1 63257U 25052AZ  26191.25865727  .00002787  00000+0  22377-3 0  9995
2 63257  97.7603  86.3114 0002028  68.7286 291.4154 15.00885957 72260
ICEYE-X46               
1 63258U 25052BA  26191.17402545  .00001572  00000+0  14759-3 0  9998
2 63258  97.6866  82.6243 0001648  85.4311 274.7099 14.95353960 72084
ICEYE-X54               
1 64570U 25135AU  26191.25539882  .00002042  00000+0  19346-3 0  9992
2 64570  97.7741 305.4571 0001689 200.1258 159.9896 14.94714004 57346
ICEYE-X52               
1 64572U 25135AW  26191.24969910  .00001233  00000+0  12209-3 0  9994
2 64572  97.7765 305.2476 0000840 210.9510 149.1661 14.93640798 57320
ICEYE-X56               
1 64574U 25135AY  26191.31311823  .00001814  00000+0  16799-3 0  9991
2 64574  97.7754 306.0933 0001076 222.2074 137.9064 14.95743054 57389
ICEYE-X57               
1 64578U 25135BC  26191.26772977  .00003023  00000+0  24253-3 0  9998
2 64578  97.8005 307.8044 0002104  60.6155 299.5279 15.00858224 57489
ICEYE-X55               
1 64581U 25135BF  26191.31927520  .00002004  00000+0  18690-3 0  9990
2 64581  97.7754 305.9280 0001828 261.0964  99.0049 14.95342393 57375
