{"fetched_at":"2026-07-10T18:08:15.903Z","source":"https://celestrak.org/NORAD/elements/gp.php?NAME=ICEYE&FORMAT=JSON","constellation":"iceye","records":[{"OBJECT_NAME":"ICEYE-X40","OBJECT_ID":"2024-149CK","EPOCH":"2026-07-10T03:32:20.178528","CLASSIFICATION_TYPE":"U","MEAN_MOTION":14.98045385,"ECCENTRICITY":0.00045272,"INCLINATION":97.6804,"RA_OF_ASC_NODE":267.2722,"ARG_OF_PERICENTER":14.3436,"MEAN_ANOMALY":345.7914,"EPHEMERIS_TYPE":0,"NORAD_CAT_ID":60549,"ELEMENT_SET_NO":999,"REV_AT_EPOCH":10351,"BSTAR":0.00011805953,"MEAN_MOTION_DOT":0.00001337,"MEAN_MOTION_DDOT":0},{"OBJECT_NAME":"ICEYE-X49","OBJECT_ID":"2024-247H","EPOCH":"2026-07-10T03:22:17.619744","CLASSIFICATION_TYPE":"U","MEAN_MOTION":15.13598488,"ECCENTRICITY":0.00012801,"INCLINATION":44.9969,"RA_OF_ASC_NODE":234.7968,"ARG_OF_PERICENTER":237.1161,"MEAN_ANOMALY":122.9594,"EPHEMERIS_TYPE":0,"NORAD_CAT_ID":62384,"ELEMENT_SET_NO":999,"REV_AT_EPOCH":8565,"BSTAR":0.00015665516,"MEAN_MOTION_DOT":0.00002603,"MEAN_MOTION_DDOT":0},{"OBJECT_NAME":"ICEYE-X47","OBJECT_ID":"2024-247N","EPOCH":"2026-07-10T05:57:11.976192","CLASSIFICATION_TYPE":"U","MEAN_MOTION":15.13473764,"ECCENTRICITY":0.00018963,"INCLINATION":44.995,"RA_OF_ASC_NODE":233.8127,"ARG_OF_PERICENTER":323.2378,"MEAN_ANOMALY":36.8369,"EPHEMERIS_TYPE":0,"NORAD_CAT_ID":62389,"ELEMENT_SET_NO":999,"REV_AT_EPOCH":8567,"BSTAR":0.00012215385,"MEAN_MOTION_DOT":0.00001965,"MEAN_MOTION_DDOT":0},{"OBJECT_NAME":"ICEYE-X42","OBJECT_ID":"2025-009CT","EPOCH":"2026-07-09T22:40:08.504832","CLASSIFICATION_TYPE":"U","MEAN_MOTION":14.91841595,"ECCENTRICITY":0.00015807,"INCLINATION":97.7369,"RA_OF_ASC_NODE":268.8517,"ARG_OF_PERICENTER":78.4032,"MEAN_ANOMALY":281.7365,"EPHEMERIS_TYPE":0,"NORAD_CAT_ID":62698,"ELEMENT_SET_NO":999,"REV_AT_EPOCH":8068,"BSTAR":0.00011850349,"MEAN_MOTION_DOT":0.00001141,"MEAN_MOTION_DDOT":0},{"OBJECT_NAME":"ICEYE-X41","OBJECT_ID":"2025-009CV","EPOCH":"2026-07-10T04:48:13.905216","CLASSIFICATION_TYPE":"U","MEAN_MOTION":14.96897863,"ECCENTRICITY":0.00006872,"INCLINATION":97.7063,"RA_OF_ASC_NODE":270.3927,"ARG_OF_PERICENTER":354.9153,"MEAN_ANOMALY":5.2062,"EPHEMERIS_TYPE":0,"NORAD_CAT_ID":62700,"ELEMENT_SET_NO":999,"REV_AT_EPOCH":8085,"BSTAR":0.00013255196,"MEAN_MOTION_DOT":0.00001464,"MEAN_MOTION_DDOT":0},{"OBJECT_NAME":"ICEYE-X45","OBJECT_ID":"2025-009DA","EPOCH":"2026-07-09T04:44:28.325184","CLASSIFICATION_TYPE":"U","MEAN_MOTION":15.00834679,"ECCENTRICITY":0.00013474,"INCLINATION":97.8389,"RA_OF_ASC_NODE":277.063,"ARG_OF_PERICENTER":83.0695,"MEAN_ANOMALY":277.0682,"EPHEMERIS_TYPE":0,"NORAD_CAT_ID":62705,"ELEMENT_SET_NO":999,"REV_AT_EPOCH":8098,"BSTAR":0.00035107789,"MEAN_MOTION_DOT":0.00004401,"MEAN_MOTION_DDOT":0},{"OBJECT_NAME":"ICEYE-X44","OBJECT_ID":"2025-009DC","EPOCH":"2026-07-08T18:07:53.111712","CLASSIFICATION_TYPE":"U","MEAN_MOTION":14.9614086,"ECCENTRICITY":0.00025143,"INCLINATION":97.7046,"RA_OF_ASC_NODE":268.5409,"ARG_OF_PERICENTER":83.8125,"MEAN_ANOMALY":276.3383,"EPHEMERIS_TYPE":0,"NORAD_CAT_ID":62707,"ELEMENT_SET_NO":999,"REV_AT_EPOCH":10316,"BSTAR":0.00018848943,"MEAN_MOTION_DOT":0.00002064,"MEAN_MOTION_DDOT":0},{"OBJECT_NAME":"ICEYE-X48","OBJECT_ID":"2025-052AV","EPOCH":"2026-07-08T16:45:21.503520","CLASSIFICATION_TYPE":"U","MEAN_MOTION":14.98103104,"ECCENTRICITY":0.00032705,"INCLINATION":97.6841,"RA_OF_ASC_NODE":81.5559,"ARG_OF_PERICENTER":119.78,"MEAN_ANOMALY":240.3748,"EPHEMERIS_TYPE":0,"NORAD_CAT_ID":63253,"ELEMENT_SET_NO":999,"REV_AT_EPOCH":7189,"BSTAR":0.00015555836,"MEAN_MOTION_DOT":0.00001783,"MEAN_MOTION_DDOT":0},{"OBJECT_NAME":"ICEYE-X50","OBJECT_ID":"2025-052AX","EPOCH":"2026-07-10T07:28:01.436736","CLASSIFICATION_TYPE":"U","MEAN_MOTION":14.95353974,"ECCENTRICITY":0.00033061,"INCLINATION":97.6865,"RA_OF_ASC_NODE":82.76,"ARG_OF_PERICENTER":112.2562,"MEAN_ANOMALY":247.901,"EPHEMERIS_TYPE":0,"NORAD_CAT_ID":63255,"ELEMENT_SET_NO":999,"REV_AT_EPOCH":7210,"BSTAR":0.0001364785,"MEAN_MOTION_DOT":0.00001449,"MEAN_MOTION_DDOT":0},{"OBJECT_NAME":"ICEYE-X51","OBJECT_ID":"2025-052AZ","EPOCH":"2026-07-10T06:12:27.988128","CLASSIFICATION_TYPE":"U","MEAN_MOTION":15.00885957,"ECCENTRICITY":0.00020283,"INCLINATION":97.7603,"RA_OF_ASC_NODE":86.3114,"ARG_OF_PERICENTER":68.7286,"MEAN_ANOMALY":291.4154,"EPHEMERIS_TYPE":0,"NORAD_CAT_ID":63257,"ELEMENT_SET_NO":999,"REV_AT_EPOCH":7226,"BSTAR":0.00022377003,"MEAN_MOTION_DOT":0.00002787,"MEAN_MOTION_DDOT":0},{"OBJECT_NAME":"ICEYE-X46","OBJECT_ID":"2025-052BA","EPOCH":"2026-07-10T04:10:35.798880","CLASSIFICATION_TYPE":"U","MEAN_MOTION":14.9535396,"ECCENTRICITY":0.0001648,"INCLINATION":97.6866,"RA_OF_ASC_NODE":82.6243,"ARG_OF_PERICENTER":85.4311,"MEAN_ANOMALY":274.7099,"EPHEMERIS_TYPE":0,"NORAD_CAT_ID":63258,"ELEMENT_SET_NO":999,"REV_AT_EPOCH":7208,"BSTAR":0.00014759244,"MEAN_MOTION_DOT":0.00001572,"MEAN_MOTION_DDOT":0},{"OBJECT_NAME":"ICEYE-X54","OBJECT_ID":"2025-135AU","EPOCH":"2026-07-10T06:07:46.458048","CLASSIFICATION_TYPE":"U","MEAN_MOTION":14.94714004,"ECCENTRICITY":0.00016893,"INCLINATION":97.7741,"RA_OF_ASC_NODE":305.4571,"ARG_OF_PERICENTER":200.1258,"MEAN_ANOMALY":159.9896,"EPHEMERIS_TYPE":0,"NORAD_CAT_ID":64570,"ELEMENT_SET_NO":999,"REV_AT_EPOCH":5734,"BSTAR":0.00019345968,"MEAN_MOTION_DOT":0.00002042,"MEAN_MOTION_DDOT":0},{"OBJECT_NAME":"ICEYE-X52","OBJECT_ID":"2025-135AW","EPOCH":"2026-07-10T05:59:34.002240","CLASSIFICATION_TYPE":"U","MEAN_MOTION":14.93640798,"ECCENTRICITY":0.00008402,"INCLINATION":97.7765,"RA_OF_ASC_NODE":305.2476,"ARG_OF_PERICENTER":210.951,"MEAN_ANOMALY":149.1661,"EPHEMERIS_TYPE":0,"NORAD_CAT_ID":64572,"ELEMENT_SET_NO":999,"REV_AT_EPOCH":5732,"BSTAR":0.00012208675,"MEAN_MOTION_DOT":0.00001233,"MEAN_MOTION_DDOT":0},{"OBJECT_NAME":"ICEYE-X56","OBJECT_ID":"2025-135AY","EPOCH":"2026-07-10T07:30:53.415072","CLASSIFICATION_TYPE":"U","MEAN_MOTION":14.95743054,"ECCENTRICITY":0.00010762,"INCLINATION":97.7754,"RA_OF_ASC_NODE":306.0933,"ARG_OF_PERICENTER":222.2074,"MEAN_ANOMALY":137.9064,"EPHEMERIS_TYPE":0,"NORAD_CAT_ID":64574,"ELEMENT_SET_NO":999,"REV_AT_EPOCH":5738,"BSTAR":0.00016798997,"MEAN_MOTION_DOT":0.00001814,"MEAN_MOTION_DDOT":0},{"OBJECT_NAME":"ICEYE-X57","OBJECT_ID":"2025-135BC","EPOCH":"2026-07-10T06:25:31.852128","CLASSIFICATION_TYPE":"U","MEAN_MOTION":15.00858224,"ECCENTRICITY":0.00021044,"INCLINATION":97.8005,"RA_OF_ASC_NODE":307.8044,"ARG_OF_PERICENTER":60.6155,"MEAN_ANOMALY":299.5279,"EPHEMERIS_TYPE":0,"NORAD_CAT_ID":64578,"ELEMENT_SET_NO":999,"REV_AT_EPOCH":5748,"BSTAR":0.00024253388,"MEAN_MOTION_DOT":0.00003023,"MEAN_MOTION_DDOT":0},{"OBJECT_NAME":"ICEYE-X55","OBJECT_ID":"2025-135BF","EPOCH":"2026-07-10T07:39:45.377280","CLASSIFICATION_TYPE":"U","MEAN_MOTION":14.95342393,"ECCENTRICITY":0.00018289,"INCLINATION":97.7754,"RA_OF_ASC_NODE":305.928,"ARG_OF_PERICENTER":261.0964,"MEAN_ANOMALY":99.0049,"EPHEMERIS_TYPE":0,"NORAD_CAT_ID":64581,"ELEMENT_SET_NO":999,"REV_AT_EPOCH":5737,"BSTAR":0.00018690047,"MEAN_MOTION_DOT":0.00002004,"MEAN_MOTION_DDOT":0}]}
